COSMOS 2413 (712)       
1 28509U 04053B   16089.84128237  .00000010  00000-0  00000+0 0  9995
2 28509  63.1289 192.9248 0005360 170.9699 291.1052  2.13101876 87616
COSMOS 2419 (714)       
1 28915U 05050A   16090.01472418  .00000048  00000-0  00000+0 0  9999
2 28915  65.2878  80.8360 0016920 343.9083 252.3884  2.13109177 79869
COSMOS 2425 (716)       
1 29670U 06062A   16089.37416251 -.00000016  00000-0  10000-3 0  9993
2 29670  65.6660 319.8376 0023066 349.0727 176.1443  2.13104938 72052
COSMOS 2426 (717)       
1 29671U 06062B   16090.28811921 -.00000011  00000-0  10000-3 0  9994
2 29671  65.6831 319.8869 0015466 159.6977 208.1615  2.13102969 72089
COSMOS 2424 (715)       
1 29672U 06062C   16090.34930166 -.00000010  00000-0  10000-3 0  9994
2 29672  65.6675 319.8149 0014940 158.6445  72.6618  2.13102094 72077
COSMOS 2433 (720)       
1 32275U 07052A   16089.45886147  .00000043  00000-0  10000-3 0  9991
2 32275  65.3029  80.6240 0005201 278.9756 143.1661  2.13104891 65572
COSMOS 2432 (719)       
1 32276U 07052B   16089.46766223  .00000043  00000-0  10000-3 0  9995
2 32276  65.3149  80.6880 0013888 329.0065  53.8626  2.13104207 65576
COSMOS 2434 (721)       
1 32393U 07065A   16090.05538069 -.00000012  00000-0  00000+0 0  9993
2 32393  65.2852 319.1756 0004656  82.8965 329.5066  2.13102746 64299
COSMOS 2436 (723)       
1 32395U 07065C   16090.30082334 -.00000010  00000-0  10000-3 0  9995
2 32395  65.2980 319.2086 0018825 357.5032 335.2017  2.13102820 64226
COSMOS 2443 (725)       
1 33379U 08046B   16089.40853156  .00000042  00000-0  10000-3 0  9999
2 33379  65.2317  80.0502 0017109 194.1095  95.4811  2.13101419 58433
COSMOS 2456 (730)       
1 36111U 09070A   16089.36426635  .00000015  00000-0  00000+0 0  9992
2 36111  64.1843 198.7982 0003780 326.4338  84.9479  2.13102830 48947
COSMOS 2457 (733)       
1 36112U 09070B   16090.12499536  .00000012  00000-0  00000+0 0  9996
2 36112  64.1666 198.7007 0006997 158.1073 247.5169  2.13101491 48965
COSMOS 2458 (734)       
1 36113U 09070C   16090.04748400  .00000012  00000-0  10000-3 0  9990
2 36113  64.1720 198.7086 0001774  46.5973 346.9447  2.13102055 48961
COSMOS 2459 (731)       
1 36400U 10007A   16089.71116103  .00000044  00000-0  10000-3 0  9997
2 36400  65.2108  79.7764 0029815 348.3555 133.3717  2.13102318 47305
COSMOS 2461 (735)       
1 36401U 10007B   16090.31161726  .00000049  00000-0  10000-3 0  9992
2 36401  65.2047  79.7383 0004460  46.8846  86.0374  2.13102334 47319
COSMOS 2460 (732)       
1 36402U 10007C   16090.36827994  .00000049  00000-0  10000-3 0  9994
2 36402  65.1944  79.7143 0002756 293.9308 284.4782  2.13101911 47310
COSMOS 2466 (738)       
1 37137U 10041A   16090.33720438 -.00000011  00000-0  10000-3 0  9990
2 37137  64.8667 319.3059 0018506 152.8074 340.7827  2.13110925 43391
COSMOS 2465 (737)       
1 37138U 10041B   16089.89775251 -.00000014  00000-0  00000+0 0  9991
2 37138  64.8853 319.3940 0033173 167.1167 170.3164  2.13101124 43377
COSMOS 2464 (736)       
1 37139U 10041C   16090.33389031 -.00000011  00000-0  00000+0 0  9997
2 37139  64.8918 319.3732 0024641  13.7269 120.0199  2.13102607 43397
COSMOS 2471 (701K)      
1 37372U 11009A   16090.15564159  .00000048  00000-0  00000+0 0  9996
2 37372  65.1916  79.6708 0009105 245.9385 301.6792  2.13102855 39580
COSMOS 2474 (742)       
1 37829U 11055A   16089.43147845  .00000016  00000-0  00000+0 0  9997
2 37829  64.5090 199.1751 0007021 249.7075  75.0012  2.13101863 34931
COSMOS 2476 (744)       
1 37867U 11064A   16090.45089593  .00000011  00000-0  00000+0 0  9993
2 37867  64.4887 199.2240 0016030 245.7168 186.8553  2.13102014 34311
COSMOS 2477 (745)       
1 37868U 11064B   16089.30320797  .00000016  00000-0  00000+0 0  9995
2 37868  64.4975 199.3023 0014022 247.0237 204.4364  2.13101814 34247
COSMOS 2475 (743)       
1 37869U 11064C   16090.14495509  .00000013  00000-0  00000+0 0  9991
2 37869  64.5050 199.2610 0019442 276.0704  57.2421  2.13101934 34269
COSMOS 2478 (746)       
1 37938U 11071A   16089.79828727  .00000045  00000-0  00000+0 0  9992
2 37938  65.2190  79.9026 0014678 245.6879 144.7594  2.13088500 33877
COSMOS 2485 (747)       
1 39155U 13019A   16090.44228111  .00000011  00000-0  00000+0 0  9997
2 39155  64.6580 199.1569 0016345 239.9647 231.1633  2.13102005 22785
COSMOS 2492 (754)       
1 39620U 14012A   16090.15323744  .00000051  00000-0  96420+1 0  9990
2 39620  65.0830  79.7208 0017533 327.1594 315.1981  2.13103637 15726
COSMOS 2500 (755)       
1 40001U 14032A   16090.28365399  .00000048  00000-0  00000+0 0  9997
2 40001  65.0235  79.7465 0006805 230.2847  15.9941  2.13102966 13947
COSMOS 2501 (702K)      
1 40315U 14075A   16089.46036375 -.00000019  00000-0  00000+0 0  9998
2 40315  64.6562 320.8850 0016098 238.3193 257.9614  2.13101423 10331
COSMOS 2514 (751)       
1 41330U 16008A   16089.86329126  .00000044  00000-0  00000+0 0  9994
2 41330  64.8232  80.0171 0010178 231.0051 231.6146  2.13103511  1106
